{
  "type": "FeatureCollection",
  "name": "L_LNGs",
  "crs": {
    "type": "name",
    "properties": {
      "name": "urn:ogc:def:crs:OGC:1.3:CRS84"
    }
  },
  "features": [
    {
      "type": "Feature",
      "properties": {
        "id": "INET_LG_1",
        "name": "Alexandroupolis",
        "node": "INET_N_31",
        "nuts3": "EL511",
        "GCV_mean_kWh_per_m3": 11.65,
        "year_end": null,
        "entsog_id": null,
        "exact": 3,
        "from_TSO": null,
        "is_H_gas": 1,
        "max_cap_store2pipe_M_m3_per_d": 16.71232876712329,
        "max_vessel_size_M_m3": 108.12250187165749,
        "max_workingGas_M_m3": 99.250216,
        "median_cap_store2pipe_M_m3_per_d": 15.589128881373854,
        "year_start": 2023.0,
        "to_TSO": null
      },
      "geometry": {
        "type": "Point",
        "coordinates": [
          25.994099,
          40.939928
        ]
      }
    },
    {
      "type": "Feature",
      "properties": {
        "id": "INET_LG_2",
        "name": "Barcelona",
        "node": "INET_N_142",
        "nuts3": "ES511",
        "GCV_mean_kWh_per_m3": 11.65,
        "year_end": null,
        "entsog_id": 309.0,
        "exact": 3,
        "from_TSO": "Enagas",
        "is_H_gas": 1,
        "max_cap_store2pipe_M_m3_per_d": 47.7620497321617,
        "max_vessel_size_M_m3": 155.344,
        "max_workingGas_M_m3": 489.28688,
        "median_cap_store2pipe_M_m3_per_d": 47.7620497321617,
        "year_start": 1969.0,
        "to_TSO": "Enagas"
      },
      "geometry": {
        "type": "Point",
        "coordinates": [
          2.174,
          41.398
        ]
      }
    },
    {
      "type": "Feature",
      "properties": {
        "id": "INET_LG_3",
        "name": "Bilbao",
        "node": "N_340_M_LMGN",
        "nuts3": "ES213",
        "GCV_mean_kWh_per_m3": 11.65,
        "year_end": null,
        "entsog_id": 314.0,
        "exact": 3,
        "from_TSO": "BBG",
        "is_H_gas": 1,
        "max_cap_store2pipe_M_m3_per_d": 19.592205701514846,
        "max_vessel_size_M_m3": 157.68,
        "max_workingGas_M_m3": 262.11672,
        "median_cap_store2pipe_M_m3_per_d": 19.592205701514846,
        "year_start": 2003.0,
        "to_TSO": "Enagas"
      },
      "geometry": {
        "type": "Point",
        "coordinates": [
          -3.10804,
          43.34045
        ]
      }
    },
    {
      "type": "Feature",
      "properties": {
        "id": "INET_LG_5",
        "name": "Cartagena",
        "node": "SEQ_1093_p",
        "nuts3": "ES620",
        "GCV_mean_kWh_per_m3": 11.65,
        "year_end": null,
        "entsog_id": 311.0,
        "exact": 3,
        "from_TSO": "Enagas",
        "is_H_gas": 1,
        "max_cap_store2pipe_M_m3_per_d": 33.06129727269546,
        "max_vessel_size_M_m3": 155.344,
        "max_workingGas_M_m3": 341.92032,
        "median_cap_store2pipe_M_m3_per_d": 33.06129727269546,
        "year_start": 1989.0,
        "to_TSO": "Enagas"
      },
      "geometry": {
        "type": "Point",
        "coordinates": [
          -0.97196,
          37.62167
        ]
      }
    },
    {
      "type": "Feature",
      "properties": {
        "id": "INET_LG_6",
        "name": "Cavarzere",
        "node": "INET_N_299",
        "nuts3": "ITH35",
        "GCV_mean_kWh_per_m3": 11.602,
        "year_end": null,
        "entsog_id": 307.0,
        "exact": 3,
        "from_TSO": "GNL Adriatico",
        "is_H_gas": 1,
        "max_cap_store2pipe_M_m3_per_d": 20.94466471232877,
        "max_vessel_size_M_m3": 88.768,
        "max_workingGas_M_m3": 146.0,
        "median_cap_store2pipe_M_m3_per_d": 19.66917383169956,
        "year_start": 2009.0,
        "to_TSO": "multiple_TSOs"
      },
      "geometry": {
        "type": "Point",
        "coordinates": [
          12.08022,
          45.133742
        ]
      }
    },
    {
      "type": "Feature",
      "properties": {
        "id": "INET_LG_7",
        "name": "Delimara",
        "node": "INET_N_380",
        "nuts3": "MT001",
        "GCV_mean_kWh_per_m3": 11.65,
        "year_end": null,
        "entsog_id": null,
        "exact": 3,
        "from_TSO": null,
        "is_H_gas": 1,
        "max_cap_store2pipe_M_m3_per_d": 1.643835616438356,
        "max_vessel_size_M_m3": 77.27890365254069,
        "max_workingGas_M_m3": 73.0,
        "median_cap_store2pipe_M_m3_per_d": 3.0143702777234176,
        "year_start": 2017.0,
        "to_TSO": null
      },
      "geometry": {
        "type": "Point",
        "coordinates": [
          14.556524,
          35.828836
        ]
      }
    },
    {
      "type": "Feature",
      "properties": {
        "id": "INET_LG_8",
        "name": "Dragon",
        "node": "INET_N_1070",
        "nuts3": "UKL14",
        "GCV_mean_kWh_per_m3": 11.0,
        "year_end": null,
        "entsog_id": 303.0,
        "exact": 2,
        "from_TSO": "multiple_TSOs",
        "is_H_gas": 1,
        "max_cap_store2pipe_M_m3_per_d": 83.34545454794521,
        "max_vessel_size_M_m3": 126.728,
        "max_workingGas_M_m3": 186.88,
        "median_cap_store2pipe_M_m3_per_d": 70.79890257803908,
        "year_start": 2009.0,
        "to_TSO": "National Grid Gas"
      },
      "geometry": {
        "type": "Point",
        "coordinates": [
          -5.03,
          51.71
        ]
      }
    },
    {
      "type": "Feature",
      "properties": {
        "id": "INET_LG_9",
        "name": "Dunkerque",
        "node": "N_3_NS_LMGN",
        "nuts3": null,
        "GCV_mean_kWh_per_m3": 11.75,
        "year_end": null,
        "entsog_id": 320.0,
        "exact": 3,
        "from_TSO": "Dunkerque LNG",
        "is_H_gas": 1,
        "max_cap_store2pipe_M_m3_per_d": 45.72980926649042,
        "max_vessel_size_M_m3": 155.928,
        "max_workingGas_M_m3": 350.4,
        "median_cap_store2pipe_M_m3_per_d": 45.72980926649042,
        "year_start": 2016.0,
        "to_TSO": "GRTgaz"
      },
      "geometry": {
        "type": "Point",
        "coordinates": [
          2.19056,
          51.03479
        ]
      }
    },
    {
      "type": "Feature",
      "properties": {
        "id": "INET_LG_10",
        "name": "El Musel",
        "node": "INET_N_462",
        "nuts3": "ES120",
        "GCV_mean_kWh_per_m3": 11.65,
        "year_end": null,
        "entsog_id": null,
        "exact": 3,
        "from_TSO": null,
        "is_H_gas": 1,
        "max_cap_store2pipe_M_m3_per_d": 19.17808219178082,
        "max_vessel_size_M_m3": 155.344,
        "max_workingGas_M_m3": 175.2,
        "median_cap_store2pipe_M_m3_per_d": 18.644257412681927,
        "year_start": 2012.0,
        "to_TSO": null
      },
      "geometry": {
        "type": "Point",
        "coordinates": [
          -5.664,
          43.534
        ]
      }
    },
    {
      "type": "Feature",
      "properties": {
        "id": "INET_LG_11",
        "name": "Fos Cavaou",
        "node": "INET_N_545",
        "nuts3": "FRL04",
        "GCV_mean_kWh_per_m3": 12.05,
        "year_end": null,
        "entsog_id": 305.0,
        "exact": 3,
        "from_TSO": "Fosmax LNG",
        "is_H_gas": 1,
        "max_cap_store2pipe_M_m3_per_d": 26.39273332040617,
        "max_vessel_size_M_m3": 155.928,
        "max_workingGas_M_m3": 192.72,
        "median_cap_store2pipe_M_m3_per_d": 23.383961721879867,
        "year_start": 2020.0,
        "to_TSO": "GRTgaz"
      },
      "geometry": {
        "type": "Point",
        "coordinates": [
          4.89863,
          43.42239
        ]
      }
    },
    {
      "type": "Feature",
      "properties": {
        "id": "INET_LG_12",
        "name": "Fos Tonkin",
        "node": "INET_N_547",
        "nuts3": "FRL04",
        "GCV_mean_kWh_per_m3": 12.05,
        "year_end": null,
        "entsog_id": 305.0,
        "exact": 3,
        "from_TSO": "Elengy",
        "is_H_gas": 1,
        "max_cap_store2pipe_M_m3_per_d": 14.700752459466235,
        "max_vessel_size_M_m3": 43.8,
        "max_workingGas_M_m3": 87.6,
        "median_cap_store2pipe_M_m3_per_d": 8.436877084756507,
        "year_start": 1972.0,
        "to_TSO": "GRTgaz"
      },
      "geometry": {
        "type": "Point",
        "coordinates": [
          4.85167,
          43.454
        ]
      }
    },
    {
      "type": "Feature",
      "properties": {
        "id": "INET_LG_13",
        "name": "Gate Rotterdam",
        "node": "INET_N_570",
        "nuts3": "NL33C",
        "GCV_mean_kWh_per_m3": 11.65,
        "year_end": null,
        "entsog_id": 316.0,
        "exact": 3,
        "from_TSO": "Gate Terminal ",
        "is_H_gas": 1,
        "max_cap_store2pipe_M_m3_per_d": 40.556833535690814,
        "max_vessel_size_M_m3": 155.344,
        "max_workingGas_M_m3": 315.36,
        "median_cap_store2pipe_M_m3_per_d": 40.556833535690814,
        "year_start": 2018.0,
        "to_TSO": "Gasunie TS"
      },
      "geometry": {
        "type": "Point",
        "coordinates": [
          4.064029,
          51.973837
        ]
      }
    },
    {
      "type": "Feature",
      "properties": {
        "id": "INET_LG_14",
        "name": "Gothenburg",
        "node": "INET_N_606",
        "nuts3": "SE232",
        "GCV_mean_kWh_per_m3": 11.65,
        "year_end": null,
        "entsog_id": null,
        "exact": 3,
        "from_TSO": null,
        "is_H_gas": 1,
        "max_cap_store2pipe_M_m3_per_d": 19.378464535200514,
        "max_vessel_size_M_m3": -172.15087932237742,
        "max_workingGas_M_m3": 19.230536,
        "median_cap_store2pipe_M_m3_per_d": 23.933810332721663,
        "year_start": 2018.0,
        "to_TSO": null
      },
      "geometry": {
        "type": "Point",
        "coordinates": [
          11.97456,
          57.70887
        ]
      }
    },
    {
      "type": "Feature",
      "properties": {
        "id": "INET_LG_15",
        "name": "Huelva",
        "node": "INET_N_698",
        "nuts3": "ES615",
        "GCV_mean_kWh_per_m3": 11.65,
        "year_end": null,
        "entsog_id": 312.0,
        "exact": 3,
        "from_TSO": "Enagas",
        "is_H_gas": 1,
        "max_cap_store2pipe_M_m3_per_d": 33.06129727269546,
        "max_vessel_size_M_m3": 101.2656,
        "max_workingGas_M_m3": 360.84776,
        "median_cap_store2pipe_M_m3_per_d": 33.06129727269546,
        "year_start": 1988.0,
        "to_TSO": "Enagas"
      },
      "geometry": {
        "type": "Point",
        "coordinates": [
          -6.9508,
          37.2583
        ]
      }
    },
    {
      "type": "Feature",
      "properties": {
        "id": "INET_LG_16",
        "name": "Isle Of Grain",
        "node": "INET_N_745",
        "nuts3": "UKJ41",
        "GCV_mean_kWh_per_m3": 11.0,
        "year_end": null,
        "entsog_id": 302.0,
        "exact": 3,
        "from_TSO": "Grain LNG",
        "is_H_gas": 1,
        "max_cap_store2pipe_M_m3_per_d": 56.65640086113858,
        "max_vessel_size_M_m3": 154.76,
        "max_workingGas_M_m3": 599.4176,
        "median_cap_store2pipe_M_m3_per_d": 56.65640086113858,
        "year_start": 2020.0,
        "to_TSO": "National Grid Gas"
      },
      "geometry": {
        "type": "Point",
        "coordinates": [
          0.711,
          51.45
        ]
      }
    },
    {
      "type": "Feature",
      "properties": {
        "id": "INET_LG_17",
        "name": "Klaipeda",
        "node": "INET_N_848",
        "nuts3": "LT023",
        "GCV_mean_kWh_per_m3": 11.7115,
        "year_end": null,
        "entsog_id": 319.0,
        "exact": 3,
        "from_TSO": "AB Klaipedos Nafta",
        "is_H_gas": 1,
        "max_cap_store2pipe_M_m3_per_d": 11.040960105703247,
        "max_vessel_size_M_m3": 93.44,
        "max_workingGas_M_m3": 97.56888,
        "median_cap_store2pipe_M_m3_per_d": 11.040960105703247,
        "year_start": 2014.0,
        "to_TSO": "Amber Grid"
      },
      "geometry": {
        "type": "Point",
        "coordinates": [
          21.101954,
          55.7253
        ]
      }
    },
    {
      "type": "Feature",
      "properties": {
        "id": "INET_LG_19",
        "name": "Montoir De Bretagne",
        "node": "INET_N_1100",
        "nuts3": "FRG01",
        "GCV_mean_kWh_per_m3": 11.93,
        "year_end": null,
        "entsog_id": 304.0,
        "exact": 3,
        "from_TSO": "Elengy",
        "is_H_gas": 1,
        "max_cap_store2pipe_M_m3_per_d": 30.369238474014033,
        "max_vessel_size_M_m3": 155.928,
        "max_workingGas_M_m3": 210.24,
        "median_cap_store2pipe_M_m3_per_d": 29.647837096589598,
        "year_start": 1980.0,
        "to_TSO": "GRTgaz"
      },
      "geometry": {
        "type": "Point",
        "coordinates": [
          -2.14,
          47.32
        ]
      }
    },
    {
      "type": "Feature",
      "properties": {
        "id": "INET_LG_20",
        "name": "Mugardos",
        "node": "INET_N_1113",
        "nuts3": "ES111",
        "GCV_mean_kWh_per_m3": 11.63,
        "year_end": null,
        "entsog_id": 313.0,
        "exact": 3,
        "from_TSO": "Reganosa",
        "is_H_gas": 1,
        "max_cap_store2pipe_M_m3_per_d": 10.13480959503597,
        "max_vessel_size_M_m3": 155.344,
        "max_workingGas_M_m3": 175.2,
        "median_cap_store2pipe_M_m3_per_d": 10.13480959503597,
        "year_start": 2007.0,
        "to_TSO": "Reganosa"
      },
      "geometry": {
        "type": "Point",
        "coordinates": [
          -8.253,
          43.4578
        ]
      }
    },
    {
      "type": "Feature",
      "properties": {
        "id": "INET_LG_21",
        "name": "Tallinn",
        "node": "N_757_M_LMGN",
        "nuts3": "EE001",
        "GCV_mean_kWh_per_m3": 11.65,
        "year_end": null,
        "entsog_id": null,
        "exact": 3,
        "from_TSO": null,
        "is_H_gas": 1,
        "max_cap_store2pipe_M_m3_per_d": 10.95890410958904,
        "max_vessel_size_M_m3": -2629.4323022321946,
        "max_workingGas_M_m3": 2.323152,
        "median_cap_store2pipe_M_m3_per_d": 9.578134445771123,
        "year_start": 2019.0,
        "to_TSO": null
      },
      "geometry": {
        "type": "Point",
        "coordinates": [
          25.04241,
          59.40666
        ]
      }
    },
    {
      "type": "Feature",
      "properties": {
        "id": "INET_LG_22",
        "name": "Teesside",
        "node": "INET_N_1617",
        "nuts3": "UKC12",
        "GCV_mean_kWh_per_m3": 11.0,
        "year_end": null,
        "entsog_id": 301.0,
        "exact": 3,
        "from_TSO": "multiple_TSOs",
        "is_H_gas": 1,
        "max_cap_store2pipe_M_m3_per_d": 11.718181819178081,
        "max_vessel_size_M_m3": 155.052,
        "max_workingGas_M_m3": 175.2,
        "median_cap_store2pipe_M_m3_per_d": 11.724713467353904,
        "year_start": null,
        "to_TSO": "National Grid Gas"
      },
      "geometry": {
        "type": "Point",
        "coordinates": [
          -1.127558,
          54.575519
        ]
      }
    },
    {
      "type": "Feature",
      "properties": {
        "id": "INET_LG_24",
        "name": "Paldiski",
        "node": "INET_N_1226",
        "nuts3": "EE001",
        "GCV_mean_kWh_per_m3": 11.65,
        "year_end": null,
        "entsog_id": null,
        "exact": 3,
        "from_TSO": null,
        "is_H_gas": 1,
        "max_cap_store2pipe_M_m3_per_d": 6.8493150684931505,
        "max_vessel_size_M_m3": 104.04429419400462,
        "max_workingGas_M_m3": 93.442336,
        "median_cap_store2pipe_M_m3_per_d": 7.516707044181764,
        "year_start": 2025.0,
        "to_TSO": null
      },
      "geometry": {
        "type": "Point",
        "coordinates": [
          24.07494,
          59.38445
        ]
      }
    },
    {
      "type": "Feature",
      "properties": {
        "id": "INET_LG_25",
        "name": "Panigaglia",
        "node": "INET_N_1232",
        "nuts3": "ITC34",
        "GCV_mean_kWh_per_m3": 11.944,
        "year_end": null,
        "entsog_id": 306.0,
        "exact": 3,
        "from_TSO": "GNL Italia",
        "is_H_gas": 1,
        "max_cap_store2pipe_M_m3_per_d": 10.513105439295124,
        "max_vessel_size_M_m3": 40.88,
        "max_workingGas_M_m3": 46.72,
        "median_cap_store2pipe_M_m3_per_d": 10.513105439295124,
        "year_start": 1971.0,
        "to_TSO": "Snam Rete Gas"
      },
      "geometry": {
        "type": "Point",
        "coordinates": [
          9.830632,
          44.073876
        ]
      }
    },
    {
      "type": "Feature",
      "properties": {
        "id": "INET_LG_26",
        "name": "Pori",
        "node": "INET_N_1288",
        "nuts3": "FI196",
        "GCV_mean_kWh_per_m3": 11.65,
        "year_end": null,
        "entsog_id": null,
        "exact": 3,
        "from_TSO": null,
        "is_H_gas": 1,
        "max_cap_store2pipe_M_m3_per_d": 19.378464535200514,
        "max_vessel_size_M_m3": -224.65286716621233,
        "max_workingGas_M_m3": 16.649256,
        "median_cap_store2pipe_M_m3_per_d": 23.933810332721663,
        "year_start": null,
        "to_TSO": null
      },
      "geometry": {
        "type": "Point",
        "coordinates": [
          21.39881,
          61.63817
        ]
      }
    },
    {
      "type": "Feature",
      "properties": {
        "id": "INET_LG_27",
        "name": "Revithoussa",
        "node": "INET_N_1352",
        "nuts3": "EL307",
        "GCV_mean_kWh_per_m3": 11.994,
        "year_end": null,
        "entsog_id": 308.0,
        "exact": 3,
        "from_TSO": "DESFA",
        "is_H_gas": 1,
        "max_cap_store2pipe_M_m3_per_d": 23.74466241059208,
        "max_vessel_size_M_m3": 151.84,
        "max_workingGas_M_m3": 131.4,
        "median_cap_store2pipe_M_m3_per_d": 18.079022324478228,
        "year_start": 2000.0,
        "to_TSO": "DESFA"
      },
      "geometry": {
        "type": "Point",
        "coordinates": [
          23.4023,
          37.96
        ]
      }
    },
    {
      "type": "Feature",
      "properties": {
        "id": "INET_LG_28",
        "name": "Riga",
        "node": "INET_N_1357",
        "nuts3": "LV006",
        "GCV_mean_kWh_per_m3": 11.65,
        "year_end": null,
        "entsog_id": null,
        "exact": 3,
        "from_TSO": null,
        "is_H_gas": 1,
        "max_cap_store2pipe_M_m3_per_d": 13.698630136986301,
        "max_vessel_size_M_m3": 104.15180130378569,
        "max_workingGas_M_m3": 104.47055574307382,
        "median_cap_store2pipe_M_m3_per_d": 13.564034318303944,
        "year_start": 2019.0,
        "to_TSO": null
      },
      "geometry": {
        "type": "Point",
        "coordinates": [
          24.1788,
          56.9904
        ]
      }
    },
    {
      "type": "Feature",
      "properties": {
        "id": "INET_LG_29",
        "name": "Sagunto",
        "node": "INET_N_1410",
        "nuts3": "ES523",
        "GCV_mean_kWh_per_m3": 11.63,
        "year_end": null,
        "entsog_id": 310.0,
        "exact": 3,
        "from_TSO": "Saggas",
        "is_H_gas": 1,
        "max_cap_store2pipe_M_m3_per_d": 24.48365894356346,
        "max_vessel_size_M_m3": 155.928,
        "max_workingGas_M_m3": 349.48896,
        "median_cap_store2pipe_M_m3_per_d": 24.48365894356346,
        "year_start": 2006.0,
        "to_TSO": "Enagas"
      },
      "geometry": {
        "type": "Point",
        "coordinates": [
          -0.2344,
          39.6426
        ]
      }
    },
    {
      "type": "Feature",
      "properties": {
        "id": "INET_LG_30",
        "name": "Sines",
        "node": "N_80_M_LMGN",
        "nuts3": "PT181",
        "GCV_mean_kWh_per_m3": 11.9,
        "year_end": null,
        "entsog_id": 315.0,
        "exact": 3,
        "from_TSO": "REN Atlantico",
        "is_H_gas": 1,
        "max_cap_store2pipe_M_m3_per_d": 17.59515554693745,
        "max_vessel_size_M_m3": 126.144,
        "max_workingGas_M_m3": 227.76,
        "median_cap_store2pipe_M_m3_per_d": 16.9617299472477,
        "year_start": 2003.0,
        "to_TSO": "REN Gasodutos"
      },
      "geometry": {
        "type": "Point",
        "coordinates": [
          -8.79009,
          37.94417
        ]
      }
    },
    {
      "type": "Feature",
      "properties": {
        "id": "INET_LG_31",
        "name": "South Hook",
        "node": "INET_N_1528",
        "nuts3": "UKL14",
        "GCV_mean_kWh_per_m3": 11.65,
        "year_end": null,
        "entsog_id": null,
        "exact": 3,
        "from_TSO": null,
        "is_H_gas": 1,
        "max_cap_store2pipe_M_m3_per_d": 57.1842555275467,
        "max_vessel_size_M_m3": 146.0,
        "max_workingGas_M_m3": 438.98112,
        "median_cap_store2pipe_M_m3_per_d": 57.1842555275467,
        "year_start": 2009.0,
        "to_TSO": null
      },
      "geometry": {
        "type": "Point",
        "coordinates": [
          -5.078012,
          51.713781
        ]
      }
    },
    {
      "type": "Feature",
      "properties": {
        "id": "INET_LG_32",
        "name": "Swinoujscie",
        "node": "INET_N_1587",
        "nuts3": "PL428",
        "GCV_mean_kWh_per_m3": 11.55,
        "year_end": null,
        "entsog_id": 321.0,
        "exact": 3,
        "from_TSO": "Polskie LNG",
        "is_H_gas": 1,
        "max_cap_store2pipe_M_m3_per_d": 13.679653679452056,
        "max_vessel_size_M_m3": 126.144,
        "max_workingGas_M_m3": 280.32,
        "median_cap_store2pipe_M_m3_per_d": 15.652407115715972,
        "year_start": 2020.0,
        "to_TSO": "GAZ-SYSTEM"
      },
      "geometry": {
        "type": "Point",
        "coordinates": [
          14.294722,
          53.909167
        ]
      }
    },
    {
      "type": "Feature",
      "properties": {
        "id": "INET_LG_33",
        "name": "Toscana",
        "node": "INET_N_967",
        "nuts3": "ITI16",
        "GCV_mean_kWh_per_m3": 11.6885,
        "year_end": null,
        "entsog_id": 317.0,
        "exact": 2,
        "from_TSO": "OLT",
        "is_H_gas": 1,
        "max_cap_store2pipe_M_m3_per_d": 14.665562148372361,
        "max_vessel_size_M_m3": 85.18769447780069,
        "max_workingGas_M_m3": 80.10144,
        "median_cap_store2pipe_M_m3_per_d": 14.647966992825424,
        "year_start": 2013.0,
        "to_TSO": "Snam Rete Gas"
      },
      "geometry": {
        "type": "Point",
        "coordinates": [
          10.311025,
          43.547519
        ]
      }
    },
    {
      "type": "Feature",
      "properties": {
        "id": "INET_LG_34",
        "name": "Zeebrugge",
        "node": "SEQ_1106_p",
        "nuts3": "BE251",
        "GCV_mean_kWh_per_m3": 11.63,
        "year_end": null,
        "entsog_id": 300.0,
        "exact": 3,
        "from_TSO": "Fluxys LNG",
        "is_H_gas": 1,
        "max_cap_store2pipe_M_m3_per_d": 47.594895754465796,
        "max_vessel_size_M_m3": 155.344,
        "max_workingGas_M_m3": 329.084,
        "median_cap_store2pipe_M_m3_per_d": 39.10523320306847,
        "year_start": 2019.0,
        "to_TSO": "Fluxys Belgium"
      },
      "geometry": {
        "type": "Point",
        "coordinates": [
          3.20788,
          51.32098
        ]
      }
    },
    {
      "type": "Feature",
      "properties": {
        "id": "GIE_LG_16",
        "name": "Porto Levante LNG Terminal",
        "node": "SEQ_3504_p",
        "nuts3": null,
        "GCV_mean_kWh_per_m3": 11.65,
        "year_end": null,
        "entsog_id": null,
        "exact": 3,
        "from_TSO": null,
        "is_H_gas": 1,
        "max_cap_store2pipe_M_m3_per_d": 20.102465212376032,
        "max_vessel_size_M_m3": 129.1323127543191,
        "max_workingGas_M_m3": 146.0,
        "median_cap_store2pipe_M_m3_per_d": 20.102465212376032,
        "year_start": null,
        "to_TSO": null
      },
      "geometry": {
        "type": "Point",
        "coordinates": [
          12.34293,
          45.04144
        ]
      }
    }
  ]
}
