{
  "type": "FeatureCollection",
  "name": "PR_Productions",
  "crs": {
    "type": "name",
    "properties": {
      "name": "urn:ogc:def:crs:OGC:1.3:CRS84"
    }
  },
  "features": [
    {
      "type": "Feature",
      "properties": {
        "id": "Prod0",
        "name": "Prod0",
        "node": "Prod_0",
        "nuts3": null,
        "is_H_gas": 1,
        "max_supply_M_m3_per_d": 1230.405195054132,
        "status": "operational"
      },
      "geometry": {
        "type": "Point",
        "coordinates": [
          -11.04853,
          54.18307
        ]
      }
    },
    {
      "type": "Feature",
      "properties": {
        "id": "Prod1",
        "name": "Prod1",
        "node": "Prod_1",
        "nuts3": null,
        "is_H_gas": 1,
        "max_supply_M_m3_per_d": 1230.405195054132,
        "status": "operational"
      },
      "geometry": {
        "type": "Point",
        "coordinates": [
          28.09757,
          43.15539
        ]
      }
    },
    {
      "type": "Feature",
      "properties": {
        "id": "Prod2",
        "name": "Prod2",
        "node": "Prod_2",
        "nuts3": null,
        "is_H_gas": 1,
        "max_supply_M_m3_per_d": 1230.405195054132,
        "status": "operational"
      },
      "geometry": {
        "type": "Point",
        "coordinates": [
          12.49689,
          34.39425
        ]
      }
    },
    {
      "type": "Feature",
      "properties": {
        "id": "Prod3",
        "name": "Prod3",
        "node": "Prod_3",
        "nuts3": null,
        "is_H_gas": 1,
        "max_supply_M_m3_per_d": 1230.405195054132,
        "status": "operational"
      },
      "geometry": {
        "type": "Point",
        "coordinates": [
          36.37273,
          45.42187
        ]
      }
    },
    {
      "type": "Feature",
      "properties": {
        "id": "Prod4",
        "name": "Prod4",
        "node": "Prod_4",
        "nuts3": null,
        "is_H_gas": 1,
        "max_supply_M_m3_per_d": 1230.405195054132,
        "status": "operational"
      },
      "geometry": {
        "type": "Point",
        "coordinates": [
          28.39614,
          43.15453
        ]
      }
    },
    {
      "type": "Feature",
      "properties": {
        "id": "Prod5",
        "name": "Prod5",
        "node": "Prod_5",
        "nuts3": null,
        "is_H_gas": 1,
        "max_supply_M_m3_per_d": 1230.405195054132,
        "status": "operational"
      },
      "geometry": {
        "type": "Point",
        "coordinates": [
          28.06088,
          43.1029
        ]
      }
    },
    {
      "type": "Feature",
      "properties": {
        "id": "Prod6",
        "name": "Prod6",
        "node": "N_33_S_LMGN",
        "nuts3": null,
        "is_H_gas": 1,
        "max_supply_M_m3_per_d": 1230.405195054132,
        "status": "operational"
      },
      "geometry": {
        "type": "Point",
        "coordinates": [
          3.79747,
          52.25203
        ]
      }
    },
    {
      "type": "Feature",
      "properties": {
        "id": "Prod7",
        "name": "Prod7",
        "node": "Prod_7",
        "nuts3": null,
        "is_H_gas": 1,
        "max_supply_M_m3_per_d": 1230.405195054132,
        "status": "operational"
      },
      "geometry": {
        "type": "Point",
        "coordinates": [
          34.97778,
          45.51566
        ]
      }
    },
    {
      "type": "Feature",
      "properties": {
        "id": "Prod8",
        "name": "Prod8",
        "node": "Prod_8",
        "nuts3": null,
        "is_H_gas": 1,
        "max_supply_M_m3_per_d": 1230.405195054132,
        "status": "operational"
      },
      "geometry": {
        "type": "Point",
        "coordinates": [
          4.15898,
          55.51782
        ]
      }
    },
    {
      "type": "Feature",
      "properties": {
        "id": "Prod9",
        "name": "Prod9",
        "node": "Prod_9",
        "nuts3": null,
        "is_H_gas": 1,
        "max_supply_M_m3_per_d": 1230.405195054132,
        "status": "operational"
      },
      "geometry": {
        "type": "Point",
        "coordinates": [
          -3.51561,
          53.72259
        ]
      }
    },
    {
      "type": "Feature",
      "properties": {
        "id": "Prod10",
        "name": "Prod10",
        "node": "Prod_10",
        "nuts3": null,
        "is_H_gas": 1,
        "max_supply_M_m3_per_d": 1230.405195054132,
        "status": "operational"
      },
      "geometry": {
        "type": "Point",
        "coordinates": [
          34.42415,
          32.12608
        ]
      }
    },
    {
      "type": "Feature",
      "properties": {
        "id": "Prod11",
        "name": "Prod11",
        "node": "Prod_11",
        "nuts3": null,
        "is_H_gas": 1,
        "max_supply_M_m3_per_d": 1230.405195054132,
        "status": "operational"
      },
      "geometry": {
        "type": "Point",
        "coordinates": [
          -2.58376,
          43.87352
        ]
      }
    },
    {
      "type": "Feature",
      "properties": {
        "id": "Prod12",
        "name": "Prod12",
        "node": "Prod_12",
        "nuts3": null,
        "is_H_gas": 1,
        "max_supply_M_m3_per_d": 1230.405195054132,
        "status": "operational"
      },
      "geometry": {
        "type": "Point",
        "coordinates": [
          -8.01499,
          51.45021
        ]
      }
    },
    {
      "type": "Feature",
      "properties": {
        "id": "Prod13",
        "name": "Prod13",
        "node": "Prod_13",
        "nuts3": null,
        "is_H_gas": 1,
        "max_supply_M_m3_per_d": 1230.405195054132,
        "status": "operational"
      },
      "geometry": {
        "type": "Point",
        "coordinates": [
          32.18736,
          45.13994
        ]
      }
    },
    {
      "type": "Feature",
      "properties": {
        "id": "Prod14",
        "name": "Prod14",
        "node": "Prod_14",
        "nuts3": null,
        "is_H_gas": 1,
        "max_supply_M_m3_per_d": 1230.405195054132,
        "status": "operational"
      },
      "geometry": {
        "type": "Point",
        "coordinates": [
          30.48413,
          44.3355
        ]
      }
    },
    {
      "type": "Feature",
      "properties": {
        "id": "Prod15",
        "name": "Prod15",
        "node": "Prod_15",
        "nuts3": null,
        "is_H_gas": 1,
        "max_supply_M_m3_per_d": 1230.405195054132,
        "status": "operational"
      },
      "geometry": {
        "type": "Point",
        "coordinates": [
          29.18211,
          44.46848
        ]
      }
    },
    {
      "type": "Feature",
      "properties": {
        "id": "Prod17",
        "name": "Prod17",
        "node": "Prod_17",
        "nuts3": null,
        "is_H_gas": 1,
        "max_supply_M_m3_per_d": 1230.405195054132,
        "status": "operational"
      },
      "geometry": {
        "type": "Point",
        "coordinates": [
          29.45083,
          44.0054
        ]
      }
    },
    {
      "type": "Feature",
      "properties": {
        "id": "Prod18",
        "name": "Prod18",
        "node": "N_363_M_LMGN",
        "nuts3": null,
        "is_H_gas": 1,
        "max_supply_M_m3_per_d": 1230.405195054132,
        "status": "operational"
      },
      "geometry": {
        "type": "Point",
        "coordinates": [
          34.57178,
          33.25527
        ]
      }
    },
    {
      "type": "Feature",
      "properties": {
        "id": "Prod19",
        "name": "Prod19",
        "node": "Prod_19",
        "nuts3": null,
        "is_H_gas": 1,
        "max_supply_M_m3_per_d": 1230.405195054132,
        "status": "operational"
      },
      "geometry": {
        "type": "Point",
        "coordinates": [
          30.91494,
          45.31751
        ]
      }
    },
    {
      "type": "Feature",
      "properties": {
        "id": "Prod20",
        "name": "Prod20",
        "node": "Prod_20",
        "nuts3": null,
        "is_H_gas": 1,
        "max_supply_M_m3_per_d": 1230.405195054132,
        "status": "operational"
      },
      "geometry": {
        "type": "Point",
        "coordinates": [
          0.48694,
          54.61267
        ]
      }
    },
    {
      "type": "Feature",
      "properties": {
        "id": "Prod21",
        "name": "Prod21",
        "node": "Prod_21",
        "nuts3": null,
        "is_H_gas": 1,
        "max_supply_M_m3_per_d": 1230.405195054132,
        "status": "operational"
      },
      "geometry": {
        "type": "Point",
        "coordinates": [
          7.68486,
          65.70589
        ]
      }
    },
    {
      "type": "Feature",
      "properties": {
        "id": "Prod22",
        "name": "Prod22",
        "node": "Prod_22",
        "nuts3": null,
        "is_H_gas": 1,
        "max_supply_M_m3_per_d": 1230.405195054132,
        "status": "operational"
      },
      "geometry": {
        "type": "Point",
        "coordinates": [
          7.78318,
          64.28153
        ]
      }
    },
    {
      "type": "Feature",
      "properties": {
        "id": "Prod23",
        "name": "Prod23",
        "node": "Prod_23",
        "nuts3": null,
        "is_H_gas": 1,
        "max_supply_M_m3_per_d": 1230.405195054132,
        "status": "operational"
      },
      "geometry": {
        "type": "Point",
        "coordinates": [
          30.04726,
          32.24282
        ]
      }
    },
    {
      "type": "Feature",
      "properties": {
        "id": "Prod24",
        "name": "Prod24",
        "node": "Prod_24",
        "nuts3": null,
        "is_H_gas": 1,
        "max_supply_M_m3_per_d": 1230.405195054132,
        "status": "operational"
      },
      "geometry": {
        "type": "Point",
        "coordinates": [
          28.51016,
          42.99639
        ]
      }
    },
    {
      "type": "Feature",
      "properties": {
        "id": "Prod25",
        "name": "Prod25",
        "node": "Prod_25",
        "nuts3": null,
        "is_H_gas": 1,
        "max_supply_M_m3_per_d": 1230.405195054132,
        "status": "operational"
      },
      "geometry": {
        "type": "Point",
        "coordinates": [
          34.73709,
          32.42212
        ]
      }
    },
    {
      "type": "Feature",
      "properties": {
        "id": "Prod26",
        "name": "Prod26",
        "node": "Prod_26",
        "nuts3": null,
        "is_H_gas": 1,
        "max_supply_M_m3_per_d": 1230.405195054132,
        "status": "operational"
      },
      "geometry": {
        "type": "Point",
        "coordinates": [
          34.88659,
          32.3248
        ]
      }
    },
    {
      "type": "Feature",
      "properties": {
        "id": "Prod27",
        "name": "Prod27",
        "node": "Prod_27",
        "nuts3": null,
        "is_H_gas": 1,
        "max_supply_M_m3_per_d": 1230.405195054132,
        "status": "operational"
      },
      "geometry": {
        "type": "Point",
        "coordinates": [
          -10.89533,
          54.2194
        ]
      }
    },
    {
      "type": "Feature",
      "properties": {
        "id": "Prod28",
        "name": "Prod28",
        "node": "N_2342_S_LMGN",
        "nuts3": null,
        "is_H_gas": 1,
        "max_supply_M_m3_per_d": 1230.405195054132,
        "status": "operational"
      },
      "geometry": {
        "type": "Point",
        "coordinates": [
          31.63397,
          45.27044
        ]
      }
    },
    {
      "type": "Feature",
      "properties": {
        "id": "Prod29",
        "name": "Prod29",
        "node": "Prod_29",
        "nuts3": null,
        "is_H_gas": 1,
        "max_supply_M_m3_per_d": 1230.405195054132,
        "status": "operational"
      },
      "geometry": {
        "type": "Point",
        "coordinates": [
          4.54606,
          56.1227
        ]
      }
    },
    {
      "type": "Feature",
      "properties": {
        "id": "Prod30",
        "name": "Prod30",
        "node": "N_29_NS_LMGN",
        "nuts3": null,
        "is_H_gas": 1,
        "max_supply_M_m3_per_d": 1230.405195054132,
        "status": "operational"
      },
      "geometry": {
        "type": "Point",
        "coordinates": [
          7.97171,
          65.98564
        ]
      }
    },
    {
      "type": "Feature",
      "properties": {
        "id": "Prod31",
        "name": "Prod31",
        "node": "Prod_31",
        "nuts3": null,
        "is_H_gas": 1,
        "max_supply_M_m3_per_d": 1230.405195054132,
        "status": "operational"
      },
      "geometry": {
        "type": "Point",
        "coordinates": [
          7.86116,
          65.94639
        ]
      }
    },
    {
      "type": "Feature",
      "properties": {
        "id": "Prod32",
        "name": "Prod32",
        "node": "Prod_32",
        "nuts3": null,
        "is_H_gas": 1,
        "max_supply_M_m3_per_d": 1230.405195054132,
        "status": "operational"
      },
      "geometry": {
        "type": "Point",
        "coordinates": [
          7.56891,
          65.67103
        ]
      }
    },
    {
      "type": "Feature",
      "properties": {
        "id": "Prod33",
        "name": "Prod33",
        "node": "Prod_33",
        "nuts3": null,
        "is_H_gas": 1,
        "max_supply_M_m3_per_d": 1230.405195054132,
        "status": "operational"
      },
      "geometry": {
        "type": "Point",
        "coordinates": [
          6.61159,
          64.98232
        ]
      }
    },
    {
      "type": "Feature",
      "properties": {
        "id": "Prod34",
        "name": "Prod34",
        "node": "Prod_34",
        "nuts3": null,
        "is_H_gas": 1,
        "max_supply_M_m3_per_d": 1230.405195054132,
        "status": "operational"
      },
      "geometry": {
        "type": "Point",
        "coordinates": [
          29.93669,
          32.11804
        ]
      }
    },
    {
      "type": "Feature",
      "properties": {
        "id": "Prod35",
        "name": "Prod35",
        "node": "Prod_35",
        "nuts3": null,
        "is_H_gas": 1,
        "max_supply_M_m3_per_d": 1230.405195054132,
        "status": "operational"
      },
      "geometry": {
        "type": "Point",
        "coordinates": [
          29.44032,
          32.33194
        ]
      }
    },
    {
      "type": "Feature",
      "properties": {
        "id": "Prod36",
        "name": "Prod36",
        "node": "Prod_36",
        "nuts3": null,
        "is_H_gas": 1,
        "max_supply_M_m3_per_d": 1230.405195054132,
        "status": "operational"
      },
      "geometry": {
        "type": "Point",
        "coordinates": [
          28.26869,
          40.73811
        ]
      }
    },
    {
      "type": "Feature",
      "properties": {
        "id": "Prod37",
        "name": "Prod37",
        "node": "Prod_37",
        "nuts3": null,
        "is_H_gas": 1,
        "max_supply_M_m3_per_d": 1230.405195054132,
        "status": "operational"
      },
      "geometry": {
        "type": "Point",
        "coordinates": [
          -7.90321,
          51.39759
        ]
      }
    },
    {
      "type": "Feature",
      "properties": {
        "id": "Prod38",
        "name": "Prod38",
        "node": "Prod_38",
        "nuts3": null,
        "is_H_gas": 1,
        "max_supply_M_m3_per_d": 1230.405195054132,
        "status": "operational"
      },
      "geometry": {
        "type": "Point",
        "coordinates": [
          29.95703,
          43.55604
        ]
      }
    },
    {
      "type": "Feature",
      "properties": {
        "id": "Prod39",
        "name": "Prod39",
        "node": "Prod_39",
        "nuts3": null,
        "is_H_gas": 1,
        "max_supply_M_m3_per_d": 1230.405195054132,
        "status": "operational"
      },
      "geometry": {
        "type": "Point",
        "coordinates": [
          1.27395,
          53.73811
        ]
      }
    },
    {
      "type": "Feature",
      "properties": {
        "id": "Prod40",
        "name": "Prod40",
        "node": "Prod_40",
        "nuts3": null,
        "is_H_gas": 1,
        "max_supply_M_m3_per_d": 1230.405195054132,
        "status": "operational"
      },
      "geometry": {
        "type": "Point",
        "coordinates": [
          2.28618,
          54.38332
        ]
      }
    },
    {
      "type": "Feature",
      "properties": {
        "id": "Prod41",
        "name": "Prod41",
        "node": "Prod_41",
        "nuts3": null,
        "is_H_gas": 1,
        "max_supply_M_m3_per_d": 1230.405195054132,
        "status": "operational"
      },
      "geometry": {
        "type": "Point",
        "coordinates": [
          33.09009,
          31.95676
        ]
      }
    },
    {
      "type": "Feature",
      "properties": {
        "id": "Prod42",
        "name": "Prod42",
        "node": "Prod_42",
        "nuts3": null,
        "is_H_gas": 1,
        "max_supply_M_m3_per_d": 1230.405195054132,
        "status": "operational"
      },
      "geometry": {
        "type": "Point",
        "coordinates": [
          31.79108,
          32.51472
        ]
      }
    },
    {
      "type": "Feature",
      "properties": {
        "id": "Prod43",
        "name": "Prod43",
        "node": "Prod_43",
        "nuts3": null,
        "is_H_gas": 1,
        "max_supply_M_m3_per_d": 1230.405195054132,
        "status": "operational"
      },
      "geometry": {
        "type": "Point",
        "coordinates": [
          31.16877,
          32.35902
        ]
      }
    },
    {
      "type": "Feature",
      "properties": {
        "id": "Prod44",
        "name": "Prod44",
        "node": "Prod_44",
        "nuts3": null,
        "is_H_gas": 1,
        "max_supply_M_m3_per_d": 1230.405195054132,
        "status": "operational"
      },
      "geometry": {
        "type": "Point",
        "coordinates": [
          31.04055,
          32.5665
        ]
      }
    },
    {
      "type": "Feature",
      "properties": {
        "id": "Prod45",
        "name": "Prod45",
        "node": "Prod_45",
        "nuts3": null,
        "is_H_gas": 1,
        "max_supply_M_m3_per_d": 1230.405195054132,
        "status": "operational"
      },
      "geometry": {
        "type": "Point",
        "coordinates": [
          3.04162,
          57.15996
        ]
      }
    },
    {
      "type": "Feature",
      "properties": {
        "id": "Prod46",
        "name": "Prod46",
        "node": "Prod_46",
        "nuts3": null,
        "is_H_gas": 1,
        "max_supply_M_m3_per_d": 1230.405195054132,
        "status": "operational"
      },
      "geometry": {
        "type": "Point",
        "coordinates": [
          2.7383,
          57.39842
        ]
      }
    },
    {
      "type": "Feature",
      "properties": {
        "id": "Prod47",
        "name": "Prod47",
        "node": "Prod_47",
        "nuts3": null,
        "is_H_gas": 1,
        "max_supply_M_m3_per_d": 1230.405195054132,
        "status": "operational"
      },
      "geometry": {
        "type": "Point",
        "coordinates": [
          1.84402,
          53.56514
        ]
      }
    },
    {
      "type": "Feature",
      "properties": {
        "id": "Prod48",
        "name": "Prod48",
        "node": "Prod_48",
        "nuts3": null,
        "is_H_gas": 1,
        "max_supply_M_m3_per_d": 1230.405195054132,
        "status": "operational"
      },
      "geometry": {
        "type": "Point",
        "coordinates": [
          1.93389,
          53.69984
        ]
      }
    },
    {
      "type": "Feature",
      "properties": {
        "id": "Prod49",
        "name": "Prod49",
        "node": "Prod_49",
        "nuts3": null,
        "is_H_gas": 1,
        "max_supply_M_m3_per_d": 1230.405195054132,
        "status": "operational"
      },
      "geometry": {
        "type": "Point",
        "coordinates": [
          2.87711,
          54.05486
        ]
      }
    },
    {
      "type": "Feature",
      "properties": {
        "id": "Prod50",
        "name": "Prod50",
        "node": "Prod_50",
        "nuts3": null,
        "is_H_gas": 1,
        "max_supply_M_m3_per_d": 1230.405195054132,
        "status": "operational"
      },
      "geometry": {
        "type": "Point",
        "coordinates": [
          -0.82934,
          57.78984
        ]
      }
    },
    {
      "type": "Feature",
      "properties": {
        "id": "Prod51",
        "name": "Prod51",
        "node": "Prod_51",
        "nuts3": null,
        "is_H_gas": 1,
        "max_supply_M_m3_per_d": 1230.405195054132,
        "status": "operational"
      },
      "geometry": {
        "type": "Point",
        "coordinates": [
          32.83319,
          32.19238
        ]
      }
    },
    {
      "type": "Feature",
      "properties": {
        "id": "Prod52",
        "name": "Prod52",
        "node": "Prod_52",
        "nuts3": null,
        "is_H_gas": 1,
        "max_supply_M_m3_per_d": 1230.405195054132,
        "status": "operational"
      },
      "geometry": {
        "type": "Point",
        "coordinates": [
          32.5096,
          32.17164
        ]
      }
    },
    {
      "type": "Feature",
      "properties": {
        "id": "Prod53",
        "name": "Prod53",
        "node": "Prod_53",
        "nuts3": null,
        "is_H_gas": 1,
        "max_supply_M_m3_per_d": 1230.405195054132,
        "status": "operational"
      },
      "geometry": {
        "type": "Point",
        "coordinates": [
          32.27863,
          32.20794
        ]
      }
    },
    {
      "type": "Feature",
      "properties": {
        "id": "Prod54",
        "name": "Prod54",
        "node": "Prod_54",
        "nuts3": null,
        "is_H_gas": 1,
        "max_supply_M_m3_per_d": 1230.405195054132,
        "status": "operational"
      },
      "geometry": {
        "type": "Point",
        "coordinates": [
          2.93439,
          57.2925
        ]
      }
    },
    {
      "type": "Feature",
      "properties": {
        "id": "Prod55",
        "name": "Prod55",
        "node": "Prod_55",
        "nuts3": null,
        "is_H_gas": 1,
        "max_supply_M_m3_per_d": 1230.405195054132,
        "status": "operational"
      },
      "geometry": {
        "type": "Point",
        "coordinates": [
          3.25958,
          57.06002
        ]
      }
    },
    {
      "type": "Feature",
      "properties": {
        "id": "Prod56",
        "name": "Prod56",
        "node": "Prod_56",
        "nuts3": null,
        "is_H_gas": 1,
        "max_supply_M_m3_per_d": 1230.405195054132,
        "status": "operational"
      },
      "geometry": {
        "type": "Point",
        "coordinates": [
          1.8844,
          57.26519
        ]
      }
    },
    {
      "type": "Feature",
      "properties": {
        "id": "Prod57",
        "name": "Prod57",
        "node": "Prod_57",
        "nuts3": null,
        "is_H_gas": 1,
        "max_supply_M_m3_per_d": 1230.405195054132,
        "status": "operational"
      },
      "geometry": {
        "type": "Point",
        "coordinates": [
          31.68827,
          45.61847
        ]
      }
    },
    {
      "type": "Feature",
      "properties": {
        "id": "Prod58",
        "name": "Prod58",
        "node": "Prod_58",
        "nuts3": null,
        "is_H_gas": 1,
        "max_supply_M_m3_per_d": 1230.405195054132,
        "status": "operational"
      },
      "geometry": {
        "type": "Point",
        "coordinates": [
          2.14864,
          53.16142
        ]
      }
    },
    {
      "type": "Feature",
      "properties": {
        "id": "Prod59",
        "name": "Prod59",
        "node": "Prod_59",
        "nuts3": null,
        "is_H_gas": 1,
        "max_supply_M_m3_per_d": 1230.405195054132,
        "status": "operational"
      },
      "geometry": {
        "type": "Point",
        "coordinates": [
          1.864,
          53.07406
        ]
      }
    },
    {
      "type": "Feature",
      "properties": {
        "id": "Prod60",
        "name": "Prod60",
        "node": "Prod_60",
        "nuts3": null,
        "is_H_gas": 1,
        "max_supply_M_m3_per_d": 1230.405195054132,
        "status": "operational"
      },
      "geometry": {
        "type": "Point",
        "coordinates": [
          4.00237,
          57.15221
        ]
      }
    },
    {
      "type": "Feature",
      "properties": {
        "id": "Prod61",
        "name": "Prod61",
        "node": "Prod_61",
        "nuts3": null,
        "is_H_gas": 1,
        "max_supply_M_m3_per_d": 1230.405195054132,
        "status": "operational"
      },
      "geometry": {
        "type": "Point",
        "coordinates": [
          3.89624,
          56.92577
        ]
      }
    },
    {
      "type": "Feature",
      "properties": {
        "id": "Prod62",
        "name": "Prod62",
        "node": "N_37_NS_LMGN",
        "nuts3": null,
        "is_H_gas": 1,
        "max_supply_M_m3_per_d": 1230.405195054132,
        "status": "operational"
      },
      "geometry": {
        "type": "Point",
        "coordinates": [
          3.17482,
          61.35048
        ]
      }
    },
    {
      "type": "Feature",
      "properties": {
        "id": "Prod63",
        "name": "Prod63",
        "node": "SEQ_13045_p",
        "nuts3": null,
        "is_H_gas": 1,
        "max_supply_M_m3_per_d": 1230.405195054132,
        "status": "operational"
      },
      "geometry": {
        "type": "Point",
        "coordinates": [
          7.261128,
          64.376278
        ]
      }
    },
    {
      "type": "Feature",
      "properties": {
        "id": "Prod64",
        "name": "Prod64",
        "node": "Prod_64",
        "nuts3": null,
        "is_H_gas": 1,
        "max_supply_M_m3_per_d": 1230.405195054132,
        "status": "operational"
      },
      "geometry": {
        "type": "Point",
        "coordinates": [
          7.32341,
          64.3921
        ]
      }
    },
    {
      "type": "Feature",
      "properties": {
        "id": "Prod65",
        "name": "Prod65",
        "node": "Prod_65",
        "nuts3": null,
        "is_H_gas": 1,
        "max_supply_M_m3_per_d": 1230.405195054132,
        "status": "operational"
      },
      "geometry": {
        "type": "Point",
        "coordinates": [
          30.55904,
          32.44425
        ]
      }
    },
    {
      "type": "Feature",
      "properties": {
        "id": "Prod66",
        "name": "Prod66",
        "node": "Prod_66",
        "nuts3": null,
        "is_H_gas": 1,
        "max_supply_M_m3_per_d": 1230.405195054132,
        "status": "operational"
      },
      "geometry": {
        "type": "Point",
        "coordinates": [
          0.8375,
          57.6198
        ]
      }
    },
    {
      "type": "Feature",
      "properties": {
        "id": "Prod67",
        "name": "Prod67",
        "node": "Prod_67",
        "nuts3": null,
        "is_H_gas": 1,
        "max_supply_M_m3_per_d": 1230.405195054132,
        "status": "operational"
      },
      "geometry": {
        "type": "Point",
        "coordinates": [
          0.7605,
          57.85582
        ]
      }
    },
    {
      "type": "Feature",
      "properties": {
        "id": "Prod68",
        "name": "Prod68",
        "node": "Prod_68",
        "nuts3": null,
        "is_H_gas": 1,
        "max_supply_M_m3_per_d": 1230.405195054132,
        "status": "operational"
      },
      "geometry": {
        "type": "Point",
        "coordinates": [
          2.02784,
          57.99441
        ]
      }
    },
    {
      "type": "Feature",
      "properties": {
        "id": "Prod69",
        "name": "Prod69",
        "node": "Prod_69",
        "nuts3": null,
        "is_H_gas": 1,
        "max_supply_M_m3_per_d": 1230.405195054132,
        "status": "operational"
      },
      "geometry": {
        "type": "Point",
        "coordinates": [
          1.99848,
          59.19034
        ]
      }
    },
    {
      "type": "Feature",
      "properties": {
        "id": "Prod70",
        "name": "Prod70",
        "node": "Prod_70",
        "nuts3": null,
        "is_H_gas": 1,
        "max_supply_M_m3_per_d": 1230.405195054132,
        "status": "operational"
      },
      "geometry": {
        "type": "Point",
        "coordinates": [
          6.73661,
          65.0017
        ]
      }
    },
    {
      "type": "Feature",
      "properties": {
        "id": "Prod71",
        "name": "Prod71",
        "node": "Prod_71",
        "nuts3": null,
        "is_H_gas": 1,
        "max_supply_M_m3_per_d": 1230.405195054132,
        "status": "operational"
      },
      "geometry": {
        "type": "Point",
        "coordinates": [
          1.95724,
          58.5369
        ]
      }
    },
    {
      "type": "Feature",
      "properties": {
        "id": "Prod72",
        "name": "Prod72",
        "node": "Prod_72",
        "nuts3": null,
        "is_H_gas": 1,
        "max_supply_M_m3_per_d": 1230.405195054132,
        "status": "operational"
      },
      "geometry": {
        "type": "Point",
        "coordinates": [
          1.74205,
          58.46497
        ]
      }
    },
    {
      "type": "Feature",
      "properties": {
        "id": "Prod73",
        "name": "Prod73",
        "node": "Prod_73",
        "nuts3": null,
        "is_H_gas": 1,
        "max_supply_M_m3_per_d": 1230.405195054132,
        "status": "operational"
      },
      "geometry": {
        "type": "Point",
        "coordinates": [
          5.48451,
          63.32893
        ]
      }
    },
    {
      "type": "Feature",
      "properties": {
        "id": "Prod74",
        "name": "Prod74",
        "node": "Prod_74",
        "nuts3": null,
        "is_H_gas": 1,
        "max_supply_M_m3_per_d": 1230.405195054132,
        "status": "operational"
      },
      "geometry": {
        "type": "Point",
        "coordinates": [
          30.36658,
          32.72161
        ]
      }
    },
    {
      "type": "Feature",
      "properties": {
        "id": "Prod75",
        "name": "Prod75",
        "node": "Prod_75",
        "nuts3": null,
        "is_H_gas": 1,
        "max_supply_M_m3_per_d": 1230.405195054132,
        "status": "operational"
      },
      "geometry": {
        "type": "Point",
        "coordinates": [
          30.5551,
          32.68294
        ]
      }
    },
    {
      "type": "Feature",
      "properties": {
        "id": "Prod76",
        "name": "Prod76",
        "node": "Prod_76",
        "nuts3": null,
        "is_H_gas": 1,
        "max_supply_M_m3_per_d": 1230.405195054132,
        "status": "operational"
      },
      "geometry": {
        "type": "Point",
        "coordinates": [
          29.82418,
          43.89683
        ]
      }
    },
    {
      "type": "Feature",
      "properties": {
        "id": "Prod77",
        "name": "Prod77",
        "node": "Prod_77",
        "nuts3": null,
        "is_H_gas": 1,
        "max_supply_M_m3_per_d": 1230.405195054132,
        "status": "operational"
      },
      "geometry": {
        "type": "Point",
        "coordinates": [
          30.0326,
          43.98256
        ]
      }
    },
    {
      "type": "Feature",
      "properties": {
        "id": "Prod78",
        "name": "Prod78",
        "node": "Prod_78",
        "nuts3": null,
        "is_H_gas": 1,
        "max_supply_M_m3_per_d": 1230.405195054132,
        "status": "operational"
      },
      "geometry": {
        "type": "Point",
        "coordinates": [
          1.36824,
          53.42418
        ]
      }
    },
    {
      "type": "Feature",
      "properties": {
        "id": "Prod79",
        "name": "Prod79",
        "node": "Prod_79",
        "nuts3": null,
        "is_H_gas": 1,
        "max_supply_M_m3_per_d": 1230.405195054132,
        "status": "operational"
      },
      "geometry": {
        "type": "Point",
        "coordinates": [
          1.43508,
          53.40756
        ]
      }
    },
    {
      "type": "Feature",
      "properties": {
        "id": "Prod80",
        "name": "Prod80",
        "node": "Prod_80",
        "nuts3": null,
        "is_H_gas": 1,
        "max_supply_M_m3_per_d": 1230.405195054132,
        "status": "operational"
      },
      "geometry": {
        "type": "Point",
        "coordinates": [
          2.96875,
          60.44403
        ]
      }
    },
    {
      "type": "Feature",
      "properties": {
        "id": "Prod81",
        "name": "Prod81",
        "node": "Prod_81",
        "nuts3": null,
        "is_H_gas": 1,
        "max_supply_M_m3_per_d": 1230.405195054132,
        "status": "operational"
      },
      "geometry": {
        "type": "Point",
        "coordinates": [
          2.2213,
          59.18114
        ]
      }
    },
    {
      "type": "Feature",
      "properties": {
        "id": "Prod82",
        "name": "Prod82",
        "node": "N_72_NS_LMGN",
        "nuts3": null,
        "is_H_gas": 1,
        "max_supply_M_m3_per_d": 1230.405195054132,
        "status": "operational"
      },
      "geometry": {
        "type": "Point",
        "coordinates": [
          2.52161,
          59.17722
        ]
      }
    },
    {
      "type": "Feature",
      "properties": {
        "id": "Prod83",
        "name": "Prod83",
        "node": "Prod_83",
        "nuts3": null,
        "is_H_gas": 1,
        "max_supply_M_m3_per_d": 1230.405195054132,
        "status": "operational"
      },
      "geometry": {
        "type": "Point",
        "coordinates": [
          2.71016,
          58.8782
        ]
      }
    },
    {
      "type": "Feature",
      "properties": {
        "id": "Prod84",
        "name": "Prod84",
        "node": "Prod_84",
        "nuts3": null,
        "is_H_gas": 1,
        "max_supply_M_m3_per_d": 1230.405195054132,
        "status": "operational"
      },
      "geometry": {
        "type": "Point",
        "coordinates": [
          6.89938,
          65.03563
        ]
      }
    },
    {
      "type": "Feature",
      "properties": {
        "id": "Prod85",
        "name": "Prod85",
        "node": "Prod_85",
        "nuts3": null,
        "is_H_gas": 1,
        "max_supply_M_m3_per_d": 1230.405195054132,
        "status": "operational"
      },
      "geometry": {
        "type": "Point",
        "coordinates": [
          3.30784,
          60.23457
        ]
      }
    },
    {
      "type": "Feature",
      "properties": {
        "id": "Prod86",
        "name": "Prod86",
        "node": "Prod_86",
        "nuts3": null,
        "is_H_gas": 1,
        "max_supply_M_m3_per_d": 1230.405195054132,
        "status": "operational"
      },
      "geometry": {
        "type": "Point",
        "coordinates": [
          3.51377,
          60.29139
        ]
      }
    },
    {
      "type": "Feature",
      "properties": {
        "id": "Prod87",
        "name": "Prod87",
        "node": "Prod_87",
        "nuts3": null,
        "is_H_gas": 1,
        "max_supply_M_m3_per_d": 1230.405195054132,
        "status": "operational"
      },
      "geometry": {
        "type": "Point",
        "coordinates": [
          5.37545,
          63.31667
        ]
      }
    },
    {
      "type": "Feature",
      "properties": {
        "id": "Prod88",
        "name": "Prod88",
        "node": "Prod_88",
        "nuts3": null,
        "is_H_gas": 1,
        "max_supply_M_m3_per_d": 1230.405195054132,
        "status": "operational"
      },
      "geometry": {
        "type": "Point",
        "coordinates": [
          7.26474,
          64.43615
        ]
      }
    },
    {
      "type": "Feature",
      "properties": {
        "id": "Prod89",
        "name": "Prod89",
        "node": "Prod_89",
        "nuts3": null,
        "is_H_gas": 1,
        "max_supply_M_m3_per_d": 1230.405195054132,
        "status": "operational"
      },
      "geometry": {
        "type": "Point",
        "coordinates": [
          32.86071,
          32.02137
        ]
      }
    },
    {
      "type": "Feature",
      "properties": {
        "id": "Prod91",
        "name": "Prod91",
        "node": "Prod_91",
        "nuts3": null,
        "is_H_gas": 1,
        "max_supply_M_m3_per_d": 1230.405195054132,
        "status": "operational"
      },
      "geometry": {
        "type": "Point",
        "coordinates": [
          2.09087,
          60.84458
        ]
      }
    },
    {
      "type": "Feature",
      "properties": {
        "id": "Prod92",
        "name": "Prod92",
        "node": "SEQ_13197_p",
        "nuts3": null,
        "is_H_gas": 1,
        "max_supply_M_m3_per_d": 1230.405195054132,
        "status": "operational"
      },
      "geometry": {
        "type": "Point",
        "coordinates": [
          3.168788,
          60.393756
        ]
      }
    },
    {
      "type": "Feature",
      "properties": {
        "id": "Prod94",
        "name": "Prod94",
        "node": "Prod_94",
        "nuts3": null,
        "is_H_gas": 1,
        "max_supply_M_m3_per_d": 1230.405195054132,
        "status": "operational"
      },
      "geometry": {
        "type": "Point",
        "coordinates": [
          2.66443,
          61.23191
        ]
      }
    },
    {
      "type": "Feature",
      "properties": {
        "id": "Prod95",
        "name": "Prod95",
        "node": "Prod_95",
        "nuts3": null,
        "is_H_gas": 1,
        "max_supply_M_m3_per_d": 1230.405195054132,
        "status": "operational"
      },
      "geometry": {
        "type": "Point",
        "coordinates": [
          1.92746,
          57.68124
        ]
      }
    },
    {
      "type": "Feature",
      "properties": {
        "id": "Prod96",
        "name": "Prod96",
        "node": "Prod_96",
        "nuts3": null,
        "is_H_gas": 1,
        "max_supply_M_m3_per_d": 1230.405195054132,
        "status": "operational"
      },
      "geometry": {
        "type": "Point",
        "coordinates": [
          2.70398,
          58.65086
        ]
      }
    },
    {
      "type": "Feature",
      "properties": {
        "id": "Prod97",
        "name": "Prod97",
        "node": "Prod_97",
        "nuts3": null,
        "is_H_gas": 1,
        "max_supply_M_m3_per_d": 1230.405195054132,
        "status": "operational"
      },
      "geometry": {
        "type": "Point",
        "coordinates": [
          2.58273,
          58.07062
        ]
      }
    },
    {
      "type": "Feature",
      "properties": {
        "id": "Prod98",
        "name": "Prod98",
        "node": "N_214_NS_LMGN",
        "nuts3": null,
        "is_H_gas": 1,
        "max_supply_M_m3_per_d": 1230.405195054132,
        "status": "operational"
      },
      "geometry": {
        "type": "Point",
        "coordinates": [
          2.06705,
          58.17131
        ]
      }
    },
    {
      "type": "Feature",
      "properties": {
        "id": "Prod99",
        "name": "Prod99",
        "node": "N_159_NS_LMGN",
        "nuts3": null,
        "is_H_gas": 1,
        "max_supply_M_m3_per_d": 1230.405195054132,
        "status": "operational"
      },
      "geometry": {
        "type": "Point",
        "coordinates": [
          2.52395,
          58.56345
        ]
      }
    },
    {
      "type": "Feature",
      "properties": {
        "id": "Prod100",
        "name": "Prod100",
        "node": "Prod_100",
        "nuts3": null,
        "is_H_gas": 1,
        "max_supply_M_m3_per_d": 1230.405195054132,
        "status": "operational"
      },
      "geometry": {
        "type": "Point",
        "coordinates": [
          2.38341,
          60.07798
        ]
      }
    },
    {
      "type": "Feature",
      "properties": {
        "id": "LKD_PD_0",
        "name": "Production (DE) (GUD) H-Gas-Summe Produktion",
        "node": "LKD_N_217",
        "nuts3": "DE938",
        "is_H_gas": 1,
        "max_supply_M_m3_per_d": 2180.446943519577,
        "status": "operational"
      },
      "geometry": {
        "type": "Point",
        "coordinates": [
          10.106537,
          53.022223
        ]
      }
    },
    {
      "type": "Feature",
      "properties": {
        "id": "LKD_PD_1",
        "name": "Schneeren",
        "node": "LKD_N_208",
        "nuts3": "DE927",
        "is_H_gas": 1,
        "max_supply_M_m3_per_d": 253.6622600743284,
        "status": "operational"
      },
      "geometry": {
        "type": "Point",
        "coordinates": [
          9.130456,
          52.600633
        ]
      }
    },
    {
      "type": "Feature",
      "properties": {
        "id": "LKD_PD_2",
        "name": "Aggregate Production H-Gas (Thyssengas)",
        "node": "LKD_N_268",
        "nuts3": "DEA1C",
        "is_H_gas": 1,
        "max_supply_M_m3_per_d": 1334.0455078111888,
        "status": "operational"
      },
      "geometry": {
        "type": "Point",
        "coordinates": [
          6.882478,
          51.35175
        ]
      }
    },
    {
      "type": "Feature",
      "properties": {
        "id": "LKD_PD_3",
        "name": "Aggregate Production L-Gas (Thyssengas)",
        "node": "LKD_N_309",
        "nuts3": "DEA1C",
        "is_H_gas": 1,
        "max_supply_M_m3_per_d": 1230.405195054132,
        "status": "operational"
      },
      "geometry": {
        "type": "Point",
        "coordinates": [
          6.89157,
          51.099864
        ]
      }
    },
    {
      "type": "Feature",
      "properties": {
        "id": "LKD_PD_4",
        "name": "Production (OGE) (DE)",
        "node": "LKD_N_317",
        "nuts3": "DE947",
        "is_H_gas": 1,
        "max_supply_M_m3_per_d": 1161.3116532160939,
        "status": "operational"
      },
      "geometry": {
        "type": "Point",
        "coordinates": [
          7.275472,
          53.472621
        ]
      }
    },
    {
      "type": "Feature",
      "properties": {
        "id": "LKD_PD_5",
        "name": "Nowega Zone Production",
        "node": "LKD_N_53",
        "nuts3": "DE944",
        "is_H_gas": 1,
        "max_supply_M_m3_per_d": 3403.5869308146425,
        "status": "operational"
      },
      "geometry": {
        "type": "Point",
        "coordinates": [
          8.011674,
          52.317116
        ]
      }
    }
  ]
}
